NORAD_CAT_ID,OBJECT_NAME,OBJECT_TYPE,EPOCH,MEAN_MOTION,ECCENTRICITY,INCLINATION,RA_OF_ASC_NODE,ARG_OF_PERICENTER,MEAN_ANOMALY,BSTAR,MEAN_MOTION_DOT,MEAN_MOTION_DDOT,TLE_LINE0,TLE_LINE1,TLE_LINE2,SEMIMAJOR_AXIS,PERIOD,APOGEE,PERIGEE,DECAYED
55673.0,STARLINK-5463,PAYLOAD,2023-12-17 14:22:30,14.98327913,0.0002474,70.0015,54.4604,256.3922,103.6962,6.9874e-05,7.41e-06,0.0,0 STARLINK-5463,1 55673U 23021AX  23351.59895836  .00000741  00000-0  69874-4 0  9991,2 55673  70.0015  54.4604 0002474 256.3922 103.6962 14.98327913 47498,6950.199,96.107,573.784,570.345,0.0
55673.0,STARLINK-5463,PAYLOAD,2023-12-18 11:12:13,14.98335822,0.0002718,70.0014,52.2736,253.7004,106.3856,0.00013684,1.54e-05,0.0,0 STARLINK-5463,1 55673U 23021AX  23352.46682782  .00001540  00000-0  13684-3 0  9997,2 55673  70.0014  52.2736 0002718 253.7004 106.3856 14.98335822 47324,6950.175,96.107,573.929,570.151,0.0
55673.0,STARLINK-5463,PAYLOAD,2023-12-18 14:24:29,14.98338985,0.000301,70.0005,51.9359,264.213,95.8686,0.00014741,1.667e-05,0.0,0 STARLINK-5463,1 55673U 23021AX  23352.60034475  .00001667  00000-0  14741-3 0  9998,2 55673  70.0005  51.9359 0003010 264.2130  95.8686 14.98338985 47645,6950.165,96.106,574.122,569.938,0.0
55673.0,STARLINK-5463,PAYLOAD,2023-12-19 11:14:16,14.98324938,0.0002808,70.0008,49.7493,252.3629,107.7223,-0.00010546,-1.351e-05,0.0,0 STARLINK-5463,1 55673U 23021AX  23353.46824150 -.00001351  00000-0 -10546-3 0  9991,2 55673  70.0008  49.7493 0002808 252.3629 107.7223 14.98324938 47471,6950.209,96.107,574.025,570.122,0.0
55673.0,STARLINK-5463,PAYLOAD,2023-12-19 14:26:32,14.98326076,0.0002991,70.0001,49.4102,267.2019,92.8798,-0.00010812,-1.383e-05,0.0,0 STARLINK-5463,1 55673U 23021AX  23353.60176099 -.00001383  00000-0 -10812-3 0  9990,2 55673  70.0001  49.4102 0002991 267.2019  92.8798 14.98326076 47790,6950.205,96.107,574.149,569.991,0.0
55673.0,STARLINK-5463,PAYLOAD,2023-12-20 11:16:16,14.9833513,0.0002895,70.0001,47.2217,267.2261,92.8566,-7.2514e-05,-9.58e-06,0.0,0 STARLINK-5463,1 55673U 23021AX  23354.46963503 -.00000958  00000-0 -72514-4 0  9994,2 55673  70.0001  47.2217 0002895 267.2261  92.8566 14.98335130 47621,6950.177,96.107,574.054,570.03,0.0
55673.0,STARLINK-5463,PAYLOAD,2023-12-20 12:52:24,14.98335581,0.0002868,70.0002,47.0537,265.2472,94.8359,-4.662e-05,-6.49e-06,0.0,0 STARLINK-5463,1 55673U 23021AX  23354.53639386 -.00000649  00000-0 -46620-4 0  9997,2 55673  70.0002  47.0537 0002868 265.2472  94.8359 14.98335581 47933,6950.176,96.107,574.034,570.047,0.0
55673.0,STARLINK-5463,PAYLOAD,2023-12-21 11:18:17,14.98324466,0.0002584,70.0003,44.6965,260.2505,99.8362,0.00019105,2.187e-05,0.0,0 STARLINK-5463,1 55673U 23021AX  23355.47103498  .00002187  00000-0  19105-3 0  9995,2 55673  70.0003  44.6965 0002584 260.2505  99.8362 14.98324466 47770,6950.21,96.107,573.871,570.279,0.0
55673.0,STARLINK-5463,PAYLOAD,2023-12-22 11:20:18,14.98326645,0.0002469,70.0011,42.1734,249.0809,111.0086,-2.2422e-05,-3.6e-06,0.0,0 STARLINK-5463,1 55673U 23021AX  23356.47244002 -.00000360  00000-0 -22422-4 0  9993,2 55673  70.0011  42.1734 0002469 249.0809 111.0086 14.98326645 47928,6950.203,96.107,573.784,570.352,0.0
55673.0,STARLINK-5463,PAYLOAD,2023-12-22 12:56:26,14.98326964,0.000248,70.001,42.0048,251.6405,108.4485,-2.0797e-05,-3.41e-06,0.0,0 STARLINK-5463,1 55673U 23021AX  23356.53919999 -.00000341  00000-0 -20797-4 0  9996,2 55673  70.0010  42.0048 0002480 251.6405 108.4485 14.98326964 48230,6950.202,96.107,573.791,570.344,0.0
55673.0,STARLINK-5463,PAYLOAD,2023-12-23 11:22:19,14.98332196,0.000253,70.0009,39.6475,256.1605,103.9273,-2.0886e-05,-3.42e-06,0.0,0 STARLINK-5463,1 55673U 23021AX  23357.47383603 -.00000342  00000-0 -20886-4 0  9997,2 55673  70.0009  39.6475 0002530 256.1605 103.9273 14.98332196 48073,6950.186,96.107,573.809,570.293,0.0
55673.0,STARLINK-5463,PAYLOAD,2023-12-23 12:58:27,14.98332668,0.0002565,70.0008,39.4792,259.8558,100.2312,-1.6124e-05,-2.85e-06,0.0,0 STARLINK-5463,1 55673U 23021AX  23357.54059567 -.00000285  00000-0 -16124-4 0  9990,2 55673  70.0008  39.4792 0002565 259.8558 100.2312 14.98332668 48389,6950.185,96.107,573.832,570.267,0.0
55673.0,STARLINK-5463,PAYLOAD,2023-12-24 11:24:20,14.98331387,0.0002677,70.0007,37.1227,261.4569,98.6286,3.6948e-05,3.48e-06,0.0,0 STARLINK-5463,1 55673U 23021AX  23358.47523370  .00000348  00000-0  36948-4 0  9995,2 55673  70.0007  37.1227 0002677 261.4569  98.6286 14.98331387 48221,6950.189,96.107,573.914,570.193,0.0
55673.0,STARLINK-5463,PAYLOAD,2023-12-24 13:00:28,14.98332085,0.0002681,70.0006,36.9536,262.3892,97.6963,4.396e-05,4.32e-06,0.0,0 STARLINK-5463,1 55673U 23021AX  23358.54199300  .00000432  00000-0  43960-4 0  9991,2 55673  70.0006  36.9536 0002681 262.3892  97.6963 14.98332085 48535,6950.186,96.107,573.915,570.188,0.0
55673.0,STARLINK-5463,PAYLOAD,2023-12-25 11:26:20,14.98334576,0.0002662,70.0006,34.5971,262.0869,97.9988,3.0298e-05,2.69e-06,0.0,0 STARLINK-5463,1 55673U 23021AX  23359.47663009  .00000269  00000-0  30298-4 0  9994,2 55673  70.0006  34.5971 0002662 262.0869  97.9988 14.98334576 48371,6950.179,96.107,573.894,570.194,0.0
55673.0,STARLINK-5463,PAYLOAD,2023-12-25 13:02:28,14.9833498,0.0002668,70.0006,34.429,262.0382,98.0474,3.1978e-05,2.89e-06,0.0,0 STARLINK-5463,1 55673U 23021AX  23359.54338955  .00000289  00000-0  31978-4 0  9999,2 55673  70.0006  34.4290 0002668 262.0382  98.0474 14.98334980 48685,6950.177,96.107,573.897,570.188,0.0
55673.0,STARLINK-5463,PAYLOAD,2023-12-26 11:28:22,14.98325064,0.0002543,70.0008,32.0723,256.6482,103.4393,-2.0356e-05,-3.36e-06,0.0,0 STARLINK-5463,1 55673U 23021AX  23360.47803667 -.00000336  00000-0 -20356-4 0  9993,2 55673  70.0008  32.0723 0002543 256.6482 103.4393 14.98325064 48521,6950.208,96.107,573.841,570.306,0.0
55673.0,STARLINK-5463,PAYLOAD,2023-12-27 11:30:22,14.9833092,0.0002593,70.0007,29.5475,254.7567,105.3306,-1.5622e-05,-2.79e-06,0.0,0 STARLINK-5463,1 55673U 23021AX  23361.47943256 -.00000279  00000-0 -15622-4 0  9999,2 55673  70.0007  29.5475 0002593 254.7567 105.3306 14.98330920 48671,6950.19,96.107,573.857,570.253,0.0
55673.0,STARLINK-5463,PAYLOAD,2023-12-28 11:32:24,14.98327503,0.000272,70.0001,27.0211,263.5963,96.4886,5.5992e-05,5.75e-06,0.0,0 STARLINK-5463,1 55673U 23021AX  23362.48083378  .00000575  00000-0  55992-4 0  9992,2 55673  70.0001  27.0211 0002720 263.5963  96.4886 14.98327503 48829,6950.201,96.107,573.956,570.175,0.0
55673.0,STARLINK-5463,PAYLOAD,2023-12-29 11:34:25,14.98318414,0.0002675,70.0001,24.4965,263.7217,96.3637,0.00020831,2.393e-05,0.0,0 STARLINK-5463,1 55673U 23021AX  23363.48223628  .00002393  00000-0  20831-3 0  9990,2 55673  70.0001  24.4965 0002675 263.7217  96.3637 14.98318414 48979,6950.229,96.108,573.953,570.235,0.0
55673.0,STARLINK-5463,PAYLOAD,2023-12-30 03:35:45,14.98330354,0.0002914,70.0,22.8127,271.4727,88.6099,3.6676e-05,3.45e-06,0.0,0 STARLINK-5463,1 55673U 23021AX  23364.14983227  .00000345  00000-0  36676-4 0  9992,2 55673  70.0000  22.8127 0002914 271.4727  88.6099 14.98330354 49073,6950.192,96.107,574.082,570.032,0.0
55673.0,STARLINK-5463,PAYLOAD,2023-12-30 11:36:25,14.98332988,0.0002856,70.0002,21.9712,270.885,89.1981,5.9812e-05,6.21e-06,0.0,0 STARLINK-5463,1 55673U 23021AX  23364.48362972  .00000621  00000-0  59812-4 0  9991,2 55673  70.0002  21.9712 0002856 270.8850  89.1981 14.98332988 49420,6950.184,96.107,574.034,570.064,0.0
55673.0,STARLINK-5463,PAYLOAD,2023-12-31 03:37:46,14.9832716,0.0002817,70.0003,20.288,273.5929,86.4908,-1.1177e-05,-2.26e-06,0.0,0 STARLINK-5463,1 55673U 23021AX  23365.15123469 -.00000226  00000-0 -11177-4 0  9997,2 55673  70.0003  20.2880 0002817 273.5929  86.4908 14.98327160 49226,6950.202,96.107,574.025,570.109,0.0
55673.0,STARLINK-5463,PAYLOAD,2023-12-31 08:26:11,14.98323192,0.0002837,70.0003,19.7829,272.9795,87.104,3.131e-05,2.81e-06,0.0,0 STARLINK-5463,1 55673U 23021AX  23365.35151638  .00000281  00000-0  31310-4 0  9998,2 55673  70.0003  19.7829 0002837 272.9795  87.1040 14.98323192 49550,6950.214,96.107,574.051,570.107,0.0
55673.0,STARLINK-5463,PAYLOAD,2024-01-01 03:39:47,14.98333234,0.0002844,70.0002,17.7633,267.5386,92.5448,-1.0635e-05,-2.2e-06,0.0,0 STARLINK-5463,1 55673U 23021AX  24001.15263040 -.00000220  00000-0 -10635-4 0  9997,2 55673  70.0002  17.7633 0002844 267.5386  92.5448 14.98333234 49374,6950.183,96.107,574.025,570.071,0.0
55673.0,STARLINK-5463,PAYLOAD,2024-01-01 11:40:27,14.98332975,0.0002753,70.0003,16.9216,263.6716,96.413,7.7103e-06,-1e-08,0.0,0 STARLINK-5463,1 55673U 23021AX  24001.48642933 -.00000001  00000-0  77103-5 0  9995,2 55673  70.0003  16.9216 0002753 263.6716  96.4130 14.98332975 49727,6950.184,96.107,573.962,570.135,0.0
55673.0,STARLINK-5463,PAYLOAD,2024-01-02 03:41:48,14.9832692,0.0002854,70.0002,15.2381,265.7629,94.3204,2.6573e-05,2.24e-06,0.0,0 STARLINK-5463,1 55673U 23021AX  24002.15403193  .00000224  00000-0  26573-4 0  9993,2 55673  70.0002  15.2381 0002854 265.7629  94.3204 14.98326920 49529,6950.202,96.107,574.051,570.084,0.0
55673.0,STARLINK-5463,PAYLOAD,2024-01-02 10:06:20,14.98327917,0.0002826,70.0004,14.565,265.26,94.8236,3.6687e-05,3.45e-06,0.0,0 STARLINK-5463,1 55673U 23021AX  24002.42107135  .00000345  00000-0  36687-4 0  9991,2 55673  70.0004  14.5650 0002826 265.2600  94.8236 14.98327917 49869,6950.199,96.107,574.028,570.1,0.0
55673.0,STARLINK-5463,PAYLOAD,2024-01-03 03:43:49,14.98327993,0.0002804,70.0004,12.7134,265.5613,94.5226,-3.587e-05,-5.21e-06,0.0,0 STARLINK-5463,1 55673U 23021AX  24003.15543362 -.00000521  00000-0 -35870-4 0  9999,2 55673  70.0004  12.7134 0002804 265.5613  94.5226 14.98327993 49678,6950.199,96.107,574.013,570.115,0.0
55673.0,STARLINK-5463,PAYLOAD,2024-01-03 10:08:21,14.98328389,0.0002782,70.0005,12.0402,265.3567,94.7275,-2.6811e-05,-4.13e-06,0.0,0 STARLINK-5463,1 55673U 23021AX  24003.42247337 -.00000413  00000-0 -26811-4 0  9997,2 55673  70.0005  12.0402 0002782 265.3567  94.7275 14.98328389 50017,6950.198,96.107,573.996,570.129,0.0
